{
    "links": {
        "self": "http://www.neowsapp.com/rest/v1/neo/3781229?api_key=iIulBulltgU6a56xZRHN4H3l9WmuAYTsLGpBGhQ2"
    },
    "id": "3781229",
    "neo_reference_id": "3781229",
    "name": "(2017 QR32)",
    "designation": "2017 QR32",
    "nasa_jpl_url": "http://ssd.jpl.nasa.gov/sbdb.cgi?sstr=3781229",
    "absolute_magnitude_h": 26.6,
    "estimated_diameter": {
        "kilometers": {
            "estimated_diameter_min": 0.0127219879,
            "estimated_diameter_max": 0.0284472297
        },
        "meters": {
            "estimated_diameter_min": 12.7219878539,
            "estimated_diameter_max": 28.4472296503
        },
        "miles": {
            "estimated_diameter_min": 0.0079050743,
            "estimated_diameter_max": 0.0176762835
        },
        "feet": {
            "estimated_diameter_min": 41.7388066307,
            "estimated_diameter_max": 93.330808926
        }
    },
    "is_potentially_hazardous_asteroid": false,
    "close_approach_data": [
        {
            "close_approach_date": "2017-09-02",
            "close_approach_date_full": "2017-Sep-02 09:17",
            "epoch_date_close_approach": 1504343820000,
            "relative_velocity": {
                "kilometers_per_second": "18.6476068181",
                "kilometers_per_hour": "67131.3845450714",
                "miles_per_hour": "41712.8316913529"
            },
            "miss_distance": {
                "astronomical": "0.0079354457",
                "lunar": "3.0868883773",
                "kilometers": "1187125.774220659",
                "miles": "737645.7510127342"
            },
            "orbiting_body": "Moon"
        },
        {
            "close_approach_date": "2017-09-02",
            "close_approach_date_full": "2017-Sep-02 13:27",
            "epoch_date_close_approach": 1504358820000,
            "relative_velocity": {
                "kilometers_per_second": "18.0386628181",
                "kilometers_per_hour": "64939.1861450696",
                "miles_per_hour": "40350.6848577517"
            },
            "miss_distance": {
                "astronomical": "0.0071596532",
                "lunar": "2.7851050948",
                "kilometers": "1071068.868658684",
                "miles": "665531.3338864792"
            },
            "orbiting_body": "Earth"
        }
    ],
    "orbital_data": {
        "orbit_id": "1",
        "orbit_determination_date": "2017-08-29 14:42:09",
        "first_observation_date": "2017-08-28",
        "last_observation_date": "2017-08-29",
        "data_arc_in_days": 1,
        "observations_used": 20,
        "orbit_uncertainty": "9",
        "minimum_orbit_intersection": ".00660339",
        "jupiter_tisserand_invariant": "3.497",
        "epoch_osculation": "2457994.5",
        "eccentricity": ".6628363266157842",
        "semi_major_axis": "2.03001010966598",
        "inclination": "3.506167630554762",
        "ascending_node_longitude": "154.1294309229903",
        "orbital_period": "1056.442168501344",
        "perihelion_distance": ".6844456655820765",
        "perihelion_argument": "265.0171895239191",
        "aphelion_distance": "3.375574553749883",
        "perihelion_time": "2458045.815097199555",
        "mean_anomaly": "342.5135387978256",
        "mean_motion": ".3407664051414112",
        "equinox": "J2000",
        "orbit_class": {
            "orbit_class_type": "APO",
            "orbit_class_description": "Near-Earth asteroid orbits which cross the Earth’s orbit similar to that of 1862 Apollo",
            "orbit_class_range": "a (semi-major axis) > 1.0 AU; q (perihelion) < 1.017 AU"
        }
    },
    "is_sentry_object": false
}